[
  {
    "id": 1,
    "name": "Mike Herlihy",
    "FIELD2": "",
    "zipcode": 92661,
    "latitude": 33.60234,
    "longitude": -117.90190,
    "airports": "KCRQ",
    "airplanes": "Pa-28, C172",
    "pilot_hours": 500,
    "instruction_per_hour": "70",
    "short_bio": "I love flying!"
  },
  {
    "id": 2,
    "name": "Cassey Alavi",
    "FIELD2": "",
    "zipcode": 92882,
    "latitude": 33.83100,
    "longitude": -117.61388,
    "airports": "KCNO",
    "airplanes": "C-172 C-182 C-210 C-310 M20 DA40 DA42 BE-33 BE-55 PA28",
    "pilot_hours": 120,
    "instruction_per_hour": "60",
    "short_bio": "I love flying!"
  },
  {
    "id": 3,
    "name": "Jon Sanderson",
    "FIELD2": "",
    "zipcode": 92591,
    "latitude": 33.52794,
    "longitude": -117.10192,
    "airports": "F70",
    "airplanes": "C-172, C152, PA-28, PA-44",
    "pilot_hours": 3273,
    "instruction_per_hour": "TBD",
    "short_bio": "I love flying!"
  },
  {
    "id": 4,
    "name": "Nicholas kanakis",
    "FIELD2": "",
    "zipcode": 91711,
    "latitude": 34.12227,
    "longitude": -117.71429,
    "airports": "KCCB",
    "airplanes": "Currently only instructing in student provided aircraft.",
    "pilot_hours": 2749,
    "instruction_per_hour": "60",
    "short_bio": "I love flying!"
  },
  {
    "id": 5,
    "name": "Rohit Fedane",
    "FIELD2": "",
    "zipcode": 95123,
    "latitude": 37.24071,
    "longitude": -121.82688,
    "airports": "",
    "airplanes": "C172",
    "pilot_hours": 592,
    "instruction_per_hour": "50",
    "short_bio": "I love flying!"
  },
  {
    "id": 6,
    "name": "Jackson Commins",
    "FIELD2": "",
    "zipcode": 90503,
    "latitude": 33.84022,
    "longitude": -118.35317,
    "airports": "",
    "airplanes": "C173",
    "pilot_hours": 710,
    "instruction_per_hour": "50",
    "short_bio": "I love flying!"
  },
  {
    "id": 7,
    "name": "Nick Kanakis",
    "FIELD2": "",
    "zipcode": 91711,
    "latitude": 34.12227,
    "longitude": -117.71429,
    "airports": "",
    "airplanes": "C174",
    "pilot_hours": 55,
    "instruction_per_hour": "50",
    "short_bio": "I love flying!"
  },
  {
    "id": 8,
    "name": "Tristan King",
    "FIELD2": "",
    "zipcode": 92131,
    "latitude": 32.91539,
    "longitude": -117.08356,
    "airports": "",
    "airplanes": "C175",
    "pilot_hours": 3045,
    "instruction_per_hour": "50",
    "short_bio": "I love flying!"
  },
  {
    "id": 9,
    "name": "Jesse White",
    "FIELD2": "",
    "zipcode": 95961,
    "latitude": 39.05761,
    "longitude": -121.55645,
    "airports": "",
    "airplanes": "C176",
    "pilot_hours": 1842,
    "instruction_per_hour": "50",
    "short_bio": "I love flying!"
  },
  {
    "id": 10,
    "name": "Mike Herlihy",
    "FIELD2": "",
    "zipcode": 92661,
    "latitude": 33.60234,
    "longitude": -117.90190,
    "airports": "",
    "airplanes": "C177",
    "pilot_hours": 2054,
    "instruction_per_hour": "50",
    "short_bio": "I love flying!"
  },
  {
    "id": 11,
    "name": "Zach Johnson",
    "FIELD2": "",
    "zipcode": 92117,
    "latitude": 32.81890,
    "longitude": -117.19777,
    "airports": "",
    "airplanes": "C178",
    "pilot_hours": 692,
    "instruction_per_hour": "50",
    "short_bio": "I love flying!"
  },
  {
    "id": 12,
    "name": "JB Drake",
    "FIELD2": "",
    "zipcode": 93001,
    "latitude": 34.33489,
    "longitude": -119.35073,
    "airports": "",
    "airplanes": "C179",
    "pilot_hours": 317,
    "instruction_per_hour": "50",
    "short_bio": "I love flying!"
  },
  {
    "id": 13,
    "name": "Cassey",
    "FIELD2": "",
    "zipcode": 92882,
    "latitude": 33.83100,
    "longitude": -117.61388,
    "airports": "",
    "airplanes": "C180",
    "pilot_hours": 1739,
    "instruction_per_hour": "50",
    "short_bio": "I love flying!"
  },
  {
    "id": 14,
    "name": "The Student Pilot Life",
    "FIELD2": "",
    "zipcode": 94566,
    "latitude": 37.64531,
    "longitude": -121.84965,
    "airports": "",
    "airplanes": "C181",
    "pilot_hours": 1098,
    "instruction_per_hour": "50",
    "short_bio": "I love flying!"
  },
  {
    "id": 15,
    "name": "Kirby Griffin",
    "FIELD2": "",
    "zipcode": 91202,
    "latitude": 34.16990,
    "longitude": -118.26633,
    "airports": "",
    "airplanes": "C182",
    "pilot_hours": 272,
    "instruction_per_hour": "50",
    "short_bio": "I love flying!"
  },
  {
    "id": 16,
    "name": "Nathan Mellin",
    "FIELD2": "",
    "zipcode": 94116,
    "latitude": 37.74435,
    "longitude": -122.48429,
    "airports": "",
    "airplanes": "C183",
    "pilot_hours": 664,
    "instruction_per_hour": "50",
    "short_bio": "I love flying!"
  },
  {
    "id": 17,
    "name": "Jon Sanderson",
    "FIELD2": "",
    "zipcode": 92591,
    "latitude": 33.52794,
    "longitude": -117.10192,
    "airports": "",
    "airplanes": "C184",
    "pilot_hours": 1638,
    "instruction_per_hour": "50",
    "short_bio": "I love flying!"
  },
  {
    "id": 18,
    "name": "JP Santiago",
    "FIELD2": "",
    "zipcode": 95117,
    "latitude": 37.31268,
    "longitude": -121.96578,
    "airports": "",
    "airplanes": "C185",
    "pilot_hours": 1520,
    "instruction_per_hour": "50",
    "short_bio": "I love flying!"
  },
  {
    "id": 19,
    "name": "Melissa Bragg",
    "FIELD2": "",
    "zipcode": 90503,
    "latitude": 33.84022,
    "longitude": -118.35317,
    "airports": "",
    "airplanes": "C186",
    "pilot_hours": 1640,
    "instruction_per_hour": "50",
    "short_bio": "I love flying!"
  },
  {
    "id": 20,
    "name": "Daniel Gradwohl",
    "FIELD2": "",
    "zipcode": 46158,
    "latitude": 39.58184,
    "longitude": -86.36698,
    "airports": "",
    "airplanes": "C187",
    "pilot_hours": 137,
    "instruction_per_hour": "50",
    "short_bio": "I love flying!"
  },
  {
    "id": 21,
    "name": "Xavier Faeldan",
    "FIELD2": "",
    "zipcode": 92626,
    "latitude": 33.67909,
    "longitude": -117.90553,
    "airports": "",
    "airplanes": "C188",
    "pilot_hours": 233,
    "instruction_per_hour": "50",
    "short_bio": "I love flying!"
  },
  {
    "id": 22,
    "name": "James Atkinson",
    "FIELD2": "",
    "zipcode": 93908,
    "latitude": 36.64184,
    "longitude": -121.58687,
    "airports": "",
    "airplanes": "C189",
    "pilot_hours": 3222,
    "instruction_per_hour": "50",
    "short_bio": "I love flying!"
  },
  {
    "id": 23,
    "name": "Dmitriy Kosovskiy",
    "FIELD2": "",
    "zipcode": 94043,
    "latitude": 37.41916,
    "longitude": -122.07541,
    "airports": "",
    "airplanes": "C190",
    "pilot_hours": 2742,
    "instruction_per_hour": "50",
    "short_bio": "I love flying!"
  },
  {
    "id": 24,
    "name": "Rod Winter",
    "FIELD2": "",
    "zipcode": 95667,
    "latitude": 38.75063,
    "longitude": -120.78852,
    "airports": "",
    "airplanes": "C191",
    "pilot_hours": 3678,
    "instruction_per_hour": "50",
    "short_bio": "I love flying!"
  },
  {
    "id": 25,
    "name": "Francois Atallah",
    "FIELD2": "",
    "zipcode": 92562,
    "latitude": 33.54283,
    "longitude": -117.26895,
    "airports": "",
    "airplanes": "C192",
    "pilot_hours": 2166,
    "instruction_per_hour": "50",
    "short_bio": "I love flying!"
  },
  {
    "id": 26,
    "name": "James McNamara",
    "FIELD2": "",
    "zipcode": 93010,
    "latitude": 34.23224,
    "longitude": -119.07638,
    "airports": "",
    "airplanes": "C193",
    "pilot_hours": 1338,
    "instruction_per_hour": "50",
    "short_bio": "I love flying!"
  },
  {
    "id": 27,
    "name": "John Kelleher",
    "FIELD2": "",
    "zipcode": 93292,
    "latitude": 36.36069,
    "longitude": -119.21144,
    "airports": "",
    "airplanes": "C194",
    "pilot_hours": 1906,
    "instruction_per_hour": "50",
    "short_bio": "I love flying!"
  },
  {
    "id": 28,
    "name": "Benjamin Josephs",
    "FIELD2": "",
    "zipcode": 90034,
    "latitude": 34.02933,
    "longitude": -118.39941,
    "airports": "",
    "airplanes": "C195",
    "pilot_hours": 3691,
    "instruction_per_hour": "50",
    "short_bio": "I love flying!"
  },
  {
    "id": 29,
    "name": "Alonso Galarza",
    "FIELD2": "",
    "zipcode": 92103,
    "latitude": 32.74543,
    "longitude": -117.17017,
    "airports": "",
    "airplanes": "C196",
    "pilot_hours": 1500,
    "instruction_per_hour": "50",
    "short_bio": "I love flying!"
  },
  {
    "id": 30,
    "name": "Niklas Murray",
    "FIELD2": "",
    "zipcode": 95630,
    "latitude": 38.66453,
    "longitude": -121.14500,
    "airports": "",
    "airplanes": "C197",
    "pilot_hours": 3196,
    "instruction_per_hour": "50",
    "short_bio": "I love flying!"
  },
  {
    "id": 31,
    "name": "Will Marchbanks",
    "FIELD2": "",
    "zipcode": 97124,
    "latitude": 45.59054,
    "longitude": -122.95607,
    "airports": "",
    "airplanes": "C198",
    "pilot_hours": 2372,
    "instruction_per_hour": "50",
    "short_bio": "I love flying!"
  },
  {
    "id": 32,
    "name": "Alex Alamida",
    "FIELD2": "",
    "zipcode": 93103,
    "latitude": 34.43630,
    "longitude": -119.68472,
    "airports": "",
    "airplanes": "C199",
    "pilot_hours": 3078,
    "instruction_per_hour": "50",
    "short_bio": "I love flying!"
  },
  {
    "id": 33,
    "name": "Uriel Casillas",
    "FIELD2": "",
    "zipcode": 91702,
    "latitude": 34.13810,
    "longitude": -117.91219,
    "airports": "",
    "airplanes": "C200",
    "pilot_hours": 2486,
    "instruction_per_hour": "50",
    "short_bio": "I love flying!"
  },
  {
    "id": 34,
    "name": "Samantha Brain",
    "FIELD2": "",
    "zipcode": 35661,
    "latitude": 34.77235,
    "longitude": -87.55492,
    "airports": "",
    "airplanes": "C201",
    "pilot_hours": 2235,
    "instruction_per_hour": "50",
    "short_bio": "I love flying!"
  },
  {
    "id": 35,
    "name": "Garry Lee",
    "FIELD2": "",
    "zipcode": 95928,
    "latitude": 39.71106,
    "longitude": -121.81048,
    "airports": "",
    "airplanes": "C202",
    "pilot_hours": 1100,
    "instruction_per_hour": "50",
    "short_bio": "I love flying!"
  },
  {
    "id": 36,
    "name": "James Kwon",
    "FIELD2": "",
    "zipcode": 91007,
    "latitude": 34.12508,
    "longitude": -118.04953,
    "airports": "",
    "airplanes": "C203",
    "pilot_hours": 480,
    "instruction_per_hour": "50",
    "short_bio": "I love flying!"
  },
  {
    "id": 37,
    "name": "nicholas richter",
    "FIELD2": "",
    "zipcode": 95955,
    "latitude": 39.31999,
    "longitude": -122.16168,
    "airports": "",
    "airplanes": "C204",
    "pilot_hours": 2981,
    "instruction_per_hour": "50",
    "short_bio": "I love flying!"
  },
  {
    "id": 38,
    "name": "Conrad McGreal",
    "FIELD2": "",
    "zipcode": 93561,
    "latitude": 35.14830,
    "longitude": -118.47922,
    "airports": "",
    "airplanes": "C205",
    "pilot_hours": 3650,
    "instruction_per_hour": "50",
    "short_bio": "I love flying!"
  },
  {
    "id": 39,
    "name": "lawrence smith",
    "FIELD2": "",
    "zipcode": 93277,
    "latitude": 36.29467,
    "longitude": -119.38128,
    "airports": "",
    "airplanes": "C206",
    "pilot_hours": 2479,
    "instruction_per_hour": "50",
    "short_bio": "I love flying!"
  },
  {
    "id": 40,
    "name": "Jim Nadal",
    "FIELD2": "",
    "zipcode": 92028,
    "latitude": 33.39430,
    "longitude": -117.29642,
    "airports": "",
    "airplanes": "C207",
    "pilot_hours": 2660,
    "instruction_per_hour": "50",
    "short_bio": "I love flying!"
  },
  {
    "id": 41,
    "name": "Daniel Kass",
    "FIELD2": "",
    "zipcode": 93065,
    "latitude": 34.29273,
    "longitude": -118.77721,
    "airports": "",
    "airplanes": "C208",
    "pilot_hours": 1408,
    "instruction_per_hour": "50",
    "short_bio": "I love flying!"
  },
  {
    "id": 42,
    "name": "Chris Pak",
    "FIELD2": "",
    "zipcode": 90007,
    "latitude": 34.02654,
    "longitude": -118.28279,
    "airports": "",
    "airplanes": "C209",
    "pilot_hours": 706,
    "instruction_per_hour": "50",
    "short_bio": "I love flying!"
  },
  {
    "id": 43,
    "name": "Anthony Borreson",
    "FIELD2": "",
    "zipcode": 95338,
    "latitude": 37.51083,
    "longitude": -119.98048,
    "airports": "",
    "airplanes": "C210",
    "pilot_hours": 2061,
    "instruction_per_hour": "50",
    "short_bio": "I love flying!"
  },
  {
    "id": 44,
    "name": "Chase Edgington",
    "FIELD2": "",
    "zipcode": 94588,
    "latitude": 37.69022,
    "longitude": -121.90223,
    "airports": "",
    "airplanes": "C211",
    "pilot_hours": 2722,
    "instruction_per_hour": "50",
    "short_bio": "I love flying!"
  },
  {
    "id": 45,
    "name": "YAAKOV NISSENBAUM",
    "FIELD2": "",
    "zipcode": 95605,
    "latitude": 38.59252,
    "longitude": -121.54230,
    "airports": "",
    "airplanes": "C212",
    "pilot_hours": 1496,
    "instruction_per_hour": "50",
    "short_bio": "I love flying!"
  },
  {
    "id": 46,
    "name": "Martha Esch",
    "FIELD2": "",
    "zipcode": 95690,
    "latitude": 38.23360,
    "longitude": -121.54882,
    "airports": "",
    "airplanes": "C213",
    "pilot_hours": 1818,
    "instruction_per_hour": "50",
    "short_bio": "I love flying!"
  },
  {
    "id": 47,
    "name": "Matthew Hulsey",
    "FIELD2": "",
    "zipcode": 94509,
    "latitude": 37.98982,
    "longitude": -121.80730,
    "airports": "",
    "airplanes": "C214",
    "pilot_hours": 1691,
    "instruction_per_hour": "50",
    "short_bio": "I love flying!"
  },
  {
    "id": 48,
    "name": "Basem Sallam",
    "FIELD2": "",
    "zipcode": 22079,
    "latitude": 38.67650,
    "longitude": -77.20688,
    "airports": "",
    "airplanes": "C215",
    "pilot_hours": 1418,
    "instruction_per_hour": "50",
    "short_bio": "I love flying!"
  },
  {
    "id": 49,
    "name": "Luis Lemus",
    "FIELD2": "",
    "zipcode": 90502,
    "latitude": 33.83398,
    "longitude": -118.29226,
    "airports": "",
    "airplanes": "C216",
    "pilot_hours": 1522,
    "instruction_per_hour": "50",
    "short_bio": "I love flying!"
  },
  {
    "id": 50,
    "name": "Matteo Borbonese",
    "FIELD2": "",
    "zipcode": 91406,
    "latitude": 34.19609,
    "longitude": -118.49237,
    "airports": "",
    "airplanes": "C217",
    "pilot_hours": 3601,
    "instruction_per_hour": "50",
    "short_bio": "I love flying!"
  }
 ]